#dP2023  1  2  0  0  0.00000000     289 ORBIT ITRF  BHN ESOC                    
## 2243  86400.00000000   300.00000000 59946 0.0000000000000                    
+  116   G22G13G21G07G05G20G31G17G15G16G29G12G19G02G25G01G30                    
+        G24G27G06G09G03G32G26G08G10G04G18G23G14G11R09R11R22                    
+        R20R19R13R01R16R08R03R07R02R17R14R18R21R05R15R12R04                    
+        R24E11E12E19E18E14E26E24E30E08E09E01E02E07E03E04E05                    
+        E21E25E27E31E36E13E15E33E34E10C11C12C14C19C20C27C28                    
+        C22C21C29C30C23C24C26C25C32C33C34C36C37C46C45C44C41                    
+        C42C06C07C08C09C10C13C16C38C39C40J02J03J04  0  0  0                    
++         4  4  4  4  4  4  4  4  4  5  5  5  4  5  4  4  5                    
++         4  5  4  4  4  4  4  4  4  4  4  5  4  4  7  5  6                    
++         6  6  5  5  5  5  5  5  5  4  4  5  5  4  4  5  4                    
++         4  5  5  5  4  5  5  5  4  4  4  5  5  5  4  5  5                    
++         5  4  5  5  4  5  4  4  5  5  4  5  4  4  5  5  5                    
++         4  4  5  5  5  5  4  5  5  5  4  4  4  5  5  5  5                    
++         4  6  6  7  6  5  7  6  8  7  7  6  6  7  0  0  0                    
%c M  cc GPS ccc cccc cccc cccc cccc ccccc ccccc ccccc ccccc                    
%c cc cc ccc ccc cccc cccc cccc cccc ccccc ccccc ccccc ccccc                    
%f  0.0000000  0.000000000  0.00000000000  0.000000000000000                    
%f  0.0000000  0.000000000  0.00000000000  0.000000000000000                    
%i    0    0    0    0      0      0      0      0         0                    
%i    0    0    0    0      0      0      0      0         0                    
/* CCCCCCCCCCCCCCCCCCCCCCCCCCCCCCCCCCCCCCCCCCCCCCCCCCCCCCCCCCCCCCCCCCCCCCCCCCCCC
/* CCCCCCCCCCCCCCCCCCCCCCCCCCCCCCCCCCCCCCCCCCCCCCCCCCCCCCCCCCCCCCCCCCCCCCCCCCCCC
/* CCCCCCCCCCCCCCCCCCCCCCCCCCCCCCCCCCCCCCCCCCCCCCCCCCCCCCCCCCCCCCCCCCCCCCCCCCCCC
/* PCV:IGS        OL/AL:EOT11A   NONE     YN ORB:CoN CLK:CoN                    
*  2023  1  3  0  0  0.00000000                                                 
PG11 -13049.156313  -9570.618397 -21056.994131    -70.044340                    
EOF                                                                             
